[{"OBJECT_NAME":"GJZ 04","OBJECT_ID":"2024-238D","EPOCH":"2026-03-09T23:01:45.855264","MEAN_MOTION":13.75183996,"ECCENTRICITY":0.00067152,"INCLINATION":59.9121,"RA_OF_ASC_NODE":211.3877,"ARG_OF_PERICENTER":262.5602,"MEAN_ANOMALY":97.4643,"EPHEMERIS_TYPE":0,"CLASSIFICATION_TYPE":"U","NORAD_CAT_ID":62293,"ELEMENT_SET_NO":999,"REV_AT_EPOCH":6226,"BSTAR":8.6972418e-5,"MEAN_MOTION_DOT":-3.5e-7,"MEAN_MOTION_DDOT":0},{"OBJECT_NAME":"COSMOS 1339","OBJECT_ID":"1982-012A","EPOCH":"2026-03-09T22:21:46.009728","MEAN_MOTION":13.7577422,"ECCENTRICITY":0.00447069,"INCLINATION":82.9012,"RA_OF_ASC_NODE":33.4786,"ARG_OF_PERICENTER":76.877,"MEAN_ANOMALY":283.737,"EPHEMERIS_TYPE":0,"CLASSIFICATION_TYPE":"U","NORAD_CAT_ID":13065,"ELEMENT_SET_NO":999,"REV_AT_EPOCH":21088,"BSTAR":7.1127279e-5,"MEAN_MOTION_DOT":8.5e-7,"MEAN_MOTION_DDOT":0}]
